SL-16 R/B               
1 22566U 93016B   25360.48737240  .00000244  00000+0  14971-3 0  9995
2 22566  71.0084   8.9290 0008039  70.2409 289.9581 14.15293524691816
COSMOS 2242             
1 22626U 93024A   25360.34632653  .00002582  00000+0  22655-3 0  9993
2 22626  82.5196 336.8384 0016016 185.7766 174.3275 14.96161813769427
SL-16 R/B               
1 22803U 93059B   25360.49561402  .00000290  00000+0  16734-3 0  9992
2 22803  70.9885 165.4782 0018631 316.2618  43.7029 14.17216737669165
ARIANE 40 R/B           
1 22830U 93061H   25360.16591855  .00000261  00000+0  11149-3 0  9997
2 22830  98.5059  65.4506 0011555 138.1483 222.0586 14.32810181683577
COSMOS 2278             
1 23087U 94023A   25360.61020829  .00000128  00000+0  91396-4 0  9994
2 23087  71.0535 327.9904 0007751 154.5229 205.6278 14.14348895634476
SL-16 R/B               
1 23088U 94023B   25360.05367618 -.00000227  00000+0 -92517-4 0  9991
2 23088  70.9975 225.5270 0002108   2.7967 357.3167 14.14999304635678
SL-16 R/B               
1 23343U 94074B   25360.32887817  .00000493  00000+0  72913-4 0  9990
2 23343  97.7189  29.0925 0008039  98.6749 272.1119 14.79304560676403
SL-16 R/B               
1 23405U 94077B   25360.55866883 -.00000217  00000+0 -86308-4 0  9996
2 23405  70.9823 146.3423 0005046 273.9880  86.0665 14.15551824605884
ARIANE 40+ R/B          
1 23561U 95021B   25360.65599644  .00000336  00000+0  12142-3 0  9992
2 23561  98.4634  68.0760 0006731  11.0181 151.6660 14.39705923608731
SL-16 R/B               
1 23705U 95058B   25360.35004768 -.00000105  00000+0 -29315-4 0  9994
2 23705  71.0217 334.2289 0014581 237.3075 122.6643 14.15481333557479
SL-16 R/B               
1 24298U 96051B   25360.15728938 -.00000011  00000+0  20996-4 0  9997
2 24298  70.7596 330.8823 0019472 244.9044 115.0056 14.12397638511265
ORBVIEW 2 (SEASTAR)     
1 24883U 97037A   25360.43819025  .00000320  00000+0  12764-3 0  9996
2 24883  98.8463 157.8580 0001214 279.7803  80.3244 14.35426606497966
