CCSDS_OMM_VERS = 2.0
CREATION_DATE  = 
ORIGINATOR     = 

OBJECT_NAME    = SL-16 R/B
OBJECT_ID      = 1993-016B
CENTER_NAME    = EARTH
REF_FRAME      = TEME
TIME_SYSTEM    = UTC
MEAN_ELEMENT_THEORY = SGP/SGP4

EPOCH          = 2025-12-26T11:41:48.975360
MEAN_MOTION    = 14.15293524
ECCENTRICITY   = .00080391
INCLINATION    = 71.0084
RA_OF_ASC_NODE = 8.9290
ARG_OF_PERICENTER = 70.2409
MEAN_ANOMALY   = 289.9581

EPHEMERIS_TYPE = 0
CLASSIFICATION_TYPE = U
NORAD_CAT_ID   = 22566
ELEMENT_SET_NO = 999
REV_AT_EPOCH   = 69181
BSTAR          = .14971111E-3
MEAN_MOTION_DOT = .244E-5
MEAN_MOTION_DDOT = 0

CCSDS_OMM_VERS = 2.0
CREATION_DATE  = 
ORIGINATOR     = 

OBJECT_NAME    = COSMOS 2242
OBJECT_ID      = 1993-024A
CENTER_NAME    = EARTH
REF_FRAME      = TEME
TIME_SYSTEM    = UTC
MEAN_ELEMENT_THEORY = SGP/SGP4

EPOCH          = 2025-12-26T08:18:42.612192
MEAN_MOTION    = 14.96161813
ECCENTRICITY   = .00160167
INCLINATION    = 82.5196
RA_OF_ASC_NODE = 336.8384
ARG_OF_PERICENTER = 185.7766
MEAN_ANOMALY   = 174.3275

EPHEMERIS_TYPE = 0
CLASSIFICATION_TYPE = U
NORAD_CAT_ID   = 22626
ELEMENT_SET_NO = 999
REV_AT_EPOCH   = 76942
BSTAR          = .22654854E-3
MEAN_MOTION_DOT = .2582E-4
MEAN_MOTION_DDOT = 0

CCSDS_OMM_VERS = 2.0
CREATION_DATE  = 
ORIGINATOR     = 

OBJECT_NAME    = SL-16 R/B
OBJECT_ID      = 1993-059B
CENTER_NAME    = EARTH
REF_FRAME      = TEME
TIME_SYSTEM    = UTC
MEAN_ELEMENT_THEORY = SGP/SGP4

EPOCH          = 2025-12-26T11:53:41.051328
MEAN_MOTION    = 14.17216737
ECCENTRICITY   = .0018631
INCLINATION    = 70.9885
RA_OF_ASC_NODE = 165.4782
ARG_OF_PERICENTER = 316.2618
MEAN_ANOMALY   = 43.7029

EPHEMERIS_TYPE = 0
CLASSIFICATION_TYPE = U
NORAD_CAT_ID   = 22803
ELEMENT_SET_NO = 999
REV_AT_EPOCH   = 66916
BSTAR          = .16734077E-3
MEAN_MOTION_DOT = .29E-5
MEAN_MOTION_DDOT = 0

CCSDS_OMM_VERS = 2.0
CREATION_DATE  = 
ORIGINATOR     = 

OBJECT_NAME    = ARIANE 40 R/B
OBJECT_ID      = 1993-061H
CENTER_NAME    = EARTH
REF_FRAME      = TEME
TIME_SYSTEM    = UTC
MEAN_ELEMENT_THEORY = SGP/SGP4

EPOCH          = 2025-12-26T03:58:55.362720
MEAN_MOTION    = 14.32810181
ECCENTRICITY   = .00115551
INCLINATION    = 98.5059
RA_OF_ASC_NODE = 65.4506
ARG_OF_PERICENTER = 138.1483
MEAN_ANOMALY   = 222.0586

EPHEMERIS_TYPE = 0
CLASSIFICATION_TYPE = U
NORAD_CAT_ID   = 22830
ELEMENT_SET_NO = 999
REV_AT_EPOCH   = 68357
BSTAR          = .11149368E-3
MEAN_MOTION_DOT = .261E-5
MEAN_MOTION_DDOT = 0

CCSDS_OMM_VERS = 2.0
CREATION_DATE  = 
ORIGINATOR     = 

OBJECT_NAME    = COSMOS 2278
OBJECT_ID      = 1994-023A
CENTER_NAME    = EARTH
REF_FRAME      = TEME
TIME_SYSTEM    = UTC
MEAN_ELEMENT_THEORY = SGP/SGP4

EPOCH          = 2025-12-26T14:38:41.996256
MEAN_MOTION    = 14.14348895
ECCENTRICITY   = .00077511
INCLINATION    = 71.0535
RA_OF_ASC_NODE = 327.9904
ARG_OF_PERICENTER = 154.5229
MEAN_ANOMALY   = 205.6278

EPHEMERIS_TYPE = 0
CLASSIFICATION_TYPE = U
NORAD_CAT_ID   = 23087
ELEMENT_SET_NO = 999
REV_AT_EPOCH   = 63447
BSTAR          = .91395681E-4
MEAN_MOTION_DOT = .128E-5
MEAN_MOTION_DDOT = 0

CCSDS_OMM_VERS = 2.0
CREATION_DATE  = 
ORIGINATOR     = 

OBJECT_NAME    = SL-16 R/B
OBJECT_ID      = 1994-023B
CENTER_NAME    = EARTH
REF_FRAME      = TEME
TIME_SYSTEM    = UTC
MEAN_ELEMENT_THEORY = SGP/SGP4

EPOCH          = 2025-12-26T01:17:17.621952
MEAN_MOTION    = 14.14999304
ECCENTRICITY   = .00021089
INCLINATION    = 70.9975
RA_OF_ASC_NODE = 225.5270
ARG_OF_PERICENTER = 2.7967
MEAN_ANOMALY   = 357.3167

EPHEMERIS_TYPE = 0
CLASSIFICATION_TYPE = U
NORAD_CAT_ID   = 23088
ELEMENT_SET_NO = 999
REV_AT_EPOCH   = 63567
BSTAR          = -.92517266E-4
MEAN_MOTION_DOT = -.227E-5
MEAN_MOTION_DDOT = 0

CCSDS_OMM_VERS = 2.0
CREATION_DATE  = 
ORIGINATOR     = 

OBJECT_NAME    = SL-16 R/B
OBJECT_ID      = 1994-074B
CENTER_NAME    = EARTH
REF_FRAME      = TEME
TIME_SYSTEM    = UTC
MEAN_ELEMENT_THEORY = SGP/SGP4

EPOCH          = 2025-12-26T07:53:35.073888
MEAN_MOTION    = 14.79304560
ECCENTRICITY   = .00080398
INCLINATION    = 97.7189
RA_OF_ASC_NODE = 29.0925
ARG_OF_PERICENTER = 98.6749
MEAN_ANOMALY   = 272.1119

EPHEMERIS_TYPE = 0
CLASSIFICATION_TYPE = U
NORAD_CAT_ID   = 23343
ELEMENT_SET_NO = 999
REV_AT_EPOCH   = 67640
BSTAR          = .72913273E-4
MEAN_MOTION_DOT = .493E-5
MEAN_MOTION_DDOT = 0

CCSDS_OMM_VERS = 2.0
CREATION_DATE  = 
ORIGINATOR     = 

OBJECT_NAME    = SL-16 R/B
OBJECT_ID      = 1994-077B
CENTER_NAME    = EARTH
REF_FRAME      = TEME
TIME_SYSTEM    = UTC
MEAN_ELEMENT_THEORY = SGP/SGP4

EPOCH          = 2025-12-26T13:24:28.986912
MEAN_MOTION    = 14.15551824
ECCENTRICITY   = .00050462
INCLINATION    = 70.9823
RA_OF_ASC_NODE = 146.3423
ARG_OF_PERICENTER = 273.9880
MEAN_ANOMALY   = 86.0665

EPHEMERIS_TYPE = 0
CLASSIFICATION_TYPE = U
NORAD_CAT_ID   = 23405
ELEMENT_SET_NO = 999
REV_AT_EPOCH   = 60588
BSTAR          = -.86307616E-4
MEAN_MOTION_DOT = -.217E-5
MEAN_MOTION_DDOT = 0

CCSDS_OMM_VERS = 2.0
CREATION_DATE  = 
ORIGINATOR     = 

OBJECT_NAME    = ARIANE 40+ R/B
OBJECT_ID      = 1995-021B
CENTER_NAME    = EARTH
REF_FRAME      = TEME
TIME_SYSTEM    = UTC
MEAN_ELEMENT_THEORY = SGP/SGP4

EPOCH          = 2025-12-26T15:44:38.092416
MEAN_MOTION    = 14.39705923
ECCENTRICITY   = .00067316
INCLINATION    = 98.4634
RA_OF_ASC_NODE = 68.0760
ARG_OF_PERICENTER = 11.0181
MEAN_ANOMALY   = 151.6660

EPHEMERIS_TYPE = 0
CLASSIFICATION_TYPE = U
NORAD_CAT_ID   = 23561
ELEMENT_SET_NO = 999
REV_AT_EPOCH   = 60873
BSTAR          = .12141754E-3
MEAN_MOTION_DOT = .336E-5
MEAN_MOTION_DDOT = 0

CCSDS_OMM_VERS = 2.0
CREATION_DATE  = 
ORIGINATOR     = 

OBJECT_NAME    = SL-16 R/B
OBJECT_ID      = 1995-058B
CENTER_NAME    = EARTH
REF_FRAME      = TEME
TIME_SYSTEM    = UTC
MEAN_ELEMENT_THEORY = SGP/SGP4

EPOCH          = 2025-12-26T08:24:04.119552
MEAN_MOTION    = 14.15481333
ECCENTRICITY   = .00145815
INCLINATION    = 71.0217
RA_OF_ASC_NODE = 334.2289
ARG_OF_PERICENTER = 237.3075
MEAN_ANOMALY   = 122.6643

EPHEMERIS_TYPE = 0
CLASSIFICATION_TYPE = U
NORAD_CAT_ID   = 23705
ELEMENT_SET_NO = 999
REV_AT_EPOCH   = 55747
BSTAR          = -.29314948E-4
MEAN_MOTION_DOT = -.105E-5
MEAN_MOTION_DDOT = 0

CCSDS_OMM_VERS = 2.0
CREATION_DATE  = 
ORIGINATOR     = 

OBJECT_NAME    = SL-16 R/B
OBJECT_ID      = 1996-051B
CENTER_NAME    = EARTH
REF_FRAME      = TEME
TIME_SYSTEM    = UTC
MEAN_ELEMENT_THEORY = SGP/SGP4

EPOCH          = 2025-12-26T03:46:29.802432
MEAN_MOTION    = 14.12397638
ECCENTRICITY   = .00194728
INCLINATION    = 70.7596
RA_OF_ASC_NODE = 330.8823
ARG_OF_PERICENTER = 244.9044
MEAN_ANOMALY   = 115.0056

EPHEMERIS_TYPE = 0
CLASSIFICATION_TYPE = U
NORAD_CAT_ID   = 24298
ELEMENT_SET_NO = 999
REV_AT_EPOCH   = 51126
BSTAR          = .20996161E-4
MEAN_MOTION_DOT = -.11E-6
MEAN_MOTION_DDOT = 0

CCSDS_OMM_VERS = 2.0
CREATION_DATE  = 
ORIGINATOR     = 

OBJECT_NAME    = ORBVIEW 2 (SEASTAR)
OBJECT_ID      = 1997-037A
CENTER_NAME    = EARTH
REF_FRAME      = TEME
TIME_SYSTEM    = UTC
MEAN_ELEMENT_THEORY = SGP/SGP4

EPOCH          = 2025-12-26T10:30:59.637600
MEAN_MOTION    = 14.35426606
ECCENTRICITY   = .00012146
INCLINATION    = 98.8463
RA_OF_ASC_NODE = 157.8580
ARG_OF_PERICENTER = 279.7803
MEAN_ANOMALY   = 80.3244

EPHEMERIS_TYPE = 0
CLASSIFICATION_TYPE = U
NORAD_CAT_ID   = 24883
ELEMENT_SET_NO = 999
REV_AT_EPOCH   = 49796
BSTAR          = .12764218E-3
MEAN_MOTION_DOT = .32E-5
MEAN_MOTION_DDOT = 0

